{"fetched_at":"2026-03-29T16:36:15Z","count":15609,"tles":[{"name":"STARLINK-5148","line1":"1 53978U 22125Q   26087.83413645  .00000338  00000+0  39318-4 0  9992","line2":"2 53978  53.2161 133.0929 0001265  87.9586 272.1551 15.08837685192282","category":"Starlink"}]}