{
  "norad_id": 53978,
  "name": "STARLINK-5148",
  "history": [
    {
      "epoch": "2026-03-28T20:01:09.389280Z",
      "apogee_km": 540.625854481842,
      "perigee_km": 538.8750755222,
      "latitude_deg": -1.4122501756658228e-06,
      "longitude_deg": 6.554878647590627,
      "height_km": 540.6149817282052,
      "semi_major_axis_km": 6917.887465002021,
      "eccentricity": 0.00012654,
      "inclination_deg": 53.2161,
      "raan_deg": 133.0929,
      "arg_perigee_deg": 87.9586,
      "mean_anomaly_deg": 272.1551,
      "mean_motion_rev_day": 15.08837685
    }
  ]
}